H1 CPF 01  gfz 2022 04 19 12  6092 terrasarx 
H2 0702601  6201 31698    2022 04 19 12 59 42 2022 04 24 00 00 42   120 1 1  0 0 0
H9
10 0 59688  46782.000000  0    1378283.664   6408923.847  -2127608.101
10 0 59688  46902.000000  0    1603307.367   6584217.930  -1251307.662
10 0 59688  47022.000000  0    1802371.152   6640855.350   -353010.833
10 0 59688  47142.000000  0    1969898.153   6578276.017    551493.669
10 0 59688  47262.000000  0    2100873.737   6398115.117   1446289.769
10 0 59688  47382.000000  0    2190973.788   6104166.750   2315622.026
10 0 59688  47502.000000  0    2236679.083   5702304.233   3144180.947
10 0 59688  47622.000000  0    2235373.217   5200359.914   3917380.098
10 0 59688  47742.000000  0    2185420.369   4607966.220   4621619.311
10 0 59688  47862.000000  0    2086221.589   3936360.467   5244528.032
10 0 59688  47982.000000  0    1938247.892   3198160.596   5775179.421
10 0 59688  48102.000000  0    1743051.840   2407121.892   6204277.521
10 0 59688  48222.000000  0    1503255.863   1577874.861   6524315.960
10 0 59688  48342.000000  0    1222517.607    725649.551   6729703.058
10 0 59688  48462.000000  0     905473.657   -134005.572   6816852.334
10 0 59688  48582.000000  0     557662.859   -985505.735   6784242.121
10 0 59688  48702.000000  0     185429.331  -1813512.695   6632441.595
10 0 59688  48822.000000  0    -204193.402  -2603210.876   6364101.293
10 0 59688  48942.000000  0    -603614.788  -3340573.578   5983908.883
10 0 59688  49062.000000  0   -1004832.617  -4012612.707   5498509.941
10 0 59688  49182.000000  0   -1399590.180  -4607609.529   4916399.055
10 0 59688  49302.000000  0   -1779545.011  -5115325.986   4247779.880
10 0 59688  49422.000000  0   -2136444.428  -5527190.951   3504391.240
10 0 59688  49542.000000  0   -2462303.645  -5836454.174   2699301.836
10 0 59688  49662.000000  0   -2749581.916  -6038303.964   1846679.235
10 0 59688  49782.000000  0   -2991352.698  -6129947.853    961537.018
10 0 59688  49902.000000  0   -3181463.740  -6110653.370     59464.152
10 0 59688  50022.000000  0   -3314682.865  -5981747.422   -843657.573
10 0 59688  50142.000000  0   -3386825.840  -5746573.944  -1731942.291
10 0 59688  50262.000000  0   -3394862.971  -5410410.448  -2589788.063
10 0 59688  50382.000000  0   -3337001.772  -4980346.155  -3402157.697
10 0 59688  50502.000000  0   -3212743.130  -4465125.008  -4154845.801
10 0 59688  50622.000000  0   -3022910.420  -3874959.372  -4834725.994
10 0 59688  50742.000000  0   -2769652.111  -3221319.724  -5429975.064
10 0 59688  50862.000000  0   -2456418.401  -2516705.032  -5930270.657
10 0 59688  50982.000000  0   -2087912.357  -1774399.529  -6326960.511
10 0 59688  51102.000000  0   -1670016.097  -1008220.320  -6613201.301
10 0 59688  51222.000000  0   -1209694.959   -232261.172  -6784064.737
10 0 59688  51342.000000  0    -714882.189    539362.283  -6836612.196
10 0 59688  51462.000000  0    -194344.323   1292762.698  -6769939.851
10 0 59688  51582.000000  0     342470.076   2014524.355  -6585192.115
10 0 59688  51702.000000  0     885596.646   2691936.317  -6285546.118
10 0 59688  51822.000000  0    1424736.889   3313213.629  -5876163.703
10 0 59688  51942.000000  0    1949449.016   3867701.596  -5364110.700
10 0 59688  52062.000000  0    2449347.048   4346060.110  -4758246.217
10 0 59688  52182.000000  0    2914304.803   4740426.497  -4069080.902
10 0 59688  52302.000000  0    3334660.506   5044552.603  -3308604.175
10 0 59688  52422.000000  0    3701418.559   5253912.579  -2490083.446
10 0 59688  52542.000000  0    4006443.890   5365778.185  -1627836.163
10 0 59688  52662.000000  0    4242642.759   5379259.420   -736979.782
10 0 59688  52782.000000  0    4404126.137   5295309.384    166837.127
10 0 59688  52902.000000  0    4486351.079   5116690.674   1067716.532
10 0 59688  53022.000000  0    4486234.588   4847904.949   1949797.873
10 0 59688  53142.000000  0    4402240.411   4495090.083   2797545.015
10 0 59688  53262.000000  0    4234433.771   4065882.430   3596030.253
10 0 59688  53382.000000  0    3984501.272   3569249.609   4331203.112
10 0 59688  53502.000000  0    3655739.573   3015299.246   4990139.917
10 0 59688  53622.000000  0    3253011.442   2415069.110   5561273.853
10 0 59688  53742.000000  0    2782667.509   1780301.164   6034594.345
10 0 59688  53862.000000  0    2252442.292   1123208.411   6401816.859
10 0 59688  53982.000000  0    1671323.063    456237.037   6656521.534
10 0 59688  54102.000000  0    1049394.546   -208168.785   6794259.168
10 0 59688  54222.000000  0     397662.386   -857798.243   6812625.682
10 0 59688  54342.000000  0    -272142.201  -1480898.722   6711301.329
10 0 59688  54462.000000  0    -947773.627  -2066388.080   6492055.368
10 0 59688  54582.000000  0   -1616695.077  -2604051.761   6158715.606
10 0 59688  54702.000000  0   -2266308.506  -3084720.851   5717105.525
10 0 59688  54822.000000  0   -2884191.586  -3500431.245   5174950.799
10 0 59688  54942.000000  0   -3458339.328  -3844560.467   4541751.015
10 0 59688  55062.000000  0   -3977401.802  -4111937.170   3828616.912
10 0 59688  55182.000000  0   -4430912.290  -4298922.339   3048078.180
10 0 59688  55302.000000  0   -4809502.574  -4403460.804   2213864.858
10 0 59688  55422.000000  0   -5105101.268  -4425101.648   1340663.641
10 0 59688  55542.000000  0   -5311108.359  -4364984.905    443853.753
10 0 59688  55662.000000  0   -5422541.988  -4225795.772   -460771.266
10 0 59688  55782.000000  0   -5436153.543  -4011687.296  -1357290.730
10 0 59688  55902.000000  0   -5350507.273  -3728172.663  -2229947.071
10 0 59688  56022.000000  0   -5166021.646  -3381989.882  -3063430.264
10 0 59688  56142.000000  0   -4884973.533  -2980944.515  -3843150.396
10 0 59688  56262.000000  0   -4511466.128  -2533734.015  -4555493.682
10 0 59688  56382.000000  0   -4051361.109  -2049758.322  -5188057.489
10 0 59688  56502.000000  0   -3512177.580  -1538921.564  -5729859.911
10 0 59688  56622.000000  0   -2902961.033  -1011428.999  -6171521.172
10 0 59688  56742.000000  0   -2234125.492   -477584.086  -6505415.009
10 0 59688  56862.000000  0   -1517271.389     52410.144  -6725788.784
10 0 59688  56982.000000  0    -764984.222    568641.459  -6828850.858
10 0 59688  57102.000000  0       9382.277   1061668.696  -6812828.699
10 0 59688  57222.000000  0     791937.084   1522689.765  -6677995.652
10 0 59688  57342.000000  0    1568494.620   1943694.615  -6426669.269
10 0 59688  57462.000000  0    2324827.046   2317602.873  -6063175.867
10 0 59688  57582.000000  0    3046920.893   2638382.377  -5593783.791
10 0 59688  57702.000000  0    3721233.443   2901146.886  -5026604.763
10 0 59688  57822.000000  0    4334947.192   3102232.765  -4371466.344
10 0 59688  57942.000000  0    4876217.935   3239252.434  -3639752.186
10 0 59688  58062.000000  0    5334409.389   3311122.203  -2844212.093
10 0 59688  58182.000000  0    5700309.539   3318065.291  -1998746.168
10 0 59688  58302.000000  0    5966325.007   3261588.347  -1118163.396
10 0 59688  58422.000000  0    6126645.690   3144430.550   -217920.145
10 0 59688  58542.000000  0    6177376.570   2970487.199    686156.285
10 0 59688  58662.000000  0    6116632.108   2744708.164   1578153.306
10 0 59688  58782.000000  0    5944590.206   2472976.526   2442361.264
10 0 59688  58902.000000  0    5663505.327   2161968.054   3263559.351
10 0 59688  59022.000000  0    5277678.186   1818994.946   4027291.533
10 0 59688  59142.000000  0    4793383.955   1451839.036   4720126.119
10 0 59688  59262.000000  0    4218762.210   1068578.443   5329892.182
10 0 59688  59382.000000  0    3563672.627    677411.937   5845893.615
10 0 59688  59502.000000  0    2839515.145    286484.877   6259093.033
10 0 59688  59622.000000  0    2059024.814    -96277.889   6562262.442
10 0 59688  59742.000000  0    1236044.426   -463330.427   6750104.183
10 0 59688  59862.000000  0     385275.999   -807653.325   6819339.465
10 0 59688  59982.000000  0    -477983.461  -1122886.972   6768761.040
10 0 59688  60102.000000  0   -1338116.453  -1403448.702   6599252.236
10 0 59688  60222.000000  0   -2179466.260  -1644631.703   6313771.257
10 0 59688  60342.000000  0   -2986619.601  -1842683.221   5917302.779
10 0 59688  60462.000000  0   -3744690.060  -1994863.288   5416779.329
10 0 59688  60582.000000  0   -4439598.017  -2099483.050   4820966.171
10 0 59688  60702.000000  0   -5058338.189  -2155920.425   4140312.517
10 0 59688  60822.000000  0   -5589230.147  -2164612.147   3386771.375
10 0 59688  60942.000000  0   -6022146.573  -2127022.781   2573591.975
10 0 59688  61062.000000  0   -6348715.729  -2045592.637   1715087.427
10 0 59688  61182.000000  0   -6562493.213  -1923664.673    826378.092
10 0 59688  61302.000000  0   -6659093.849  -1765390.911    -76882.445
10 0 59688  61422.000000  0   -6636283.827  -1575621.354   -978791.520
10 0 59688  61542.000000  0   -6494028.543  -1359778.467  -1863486.931
10 0 59688  61662.000000  0   -6234495.731  -1123720.935  -2715433.765
10 0 59688  61782.000000  0   -5862014.775   -873600.477  -3519702.809
10 0 59688  61902.000000  0   -5382993.735   -615714.376  -4262235.000
10 0 59688  62022.000000  0   -4805796.774   -356357.555  -4930086.286
10 0 59688  62142.000000  0   -4140585.495   -101678.620  -5511648.502
10 0 59688  62262.000000  0   -3399128.381    142456.932  -5996843.103
10 0 59688  62382.000000  0   -2594583.849    370593.860  -6377284.091
10 0 59688  62502.000000  0   -1741263.031    577801.571  -6646410.889
10 0 59688  62622.000000  0    -854374.655    759773.982  -6799590.983
10 0 59688  62742.000000  0      50242.614    912914.671  -6834190.063
10 0 59688  62862.000000  0     956395.491   1034404.647  -6749611.691
10 0 59688  62982.000000  0    1847818.756   1122252.373  -6547309.268
10 0 59688  63102.000000  0    2708461.782   1175326.392  -6230764.076
10 0 59688  63222.000000  0    3522772.969   1193368.976  -5805431.118
99
